ONEWEB-0456             
1 51646U 22012AA  25283.73065225 -.00000189  00000+0 -57839-3 0  9993
2 51646  87.8764  85.9588 0001561  97.3978 262.7327 13.10375935176676
ONEWEB-0457             
1 51647U 22012AB  25283.86012897 -.00000601  00000+0 -17591-2 0  9994
2 51647  87.8745  85.9872 0001850  81.1698 278.9639 13.10369977176699
ONEWEB-0458             
1 51648U 22012AC  25283.72899628 -.00000080  00000+0 -26466-3 0  9998
2 51648  87.8751  85.9843 0001494  86.4876 273.6423 13.10377637176634
ONEWEB-0461             
1 51649U 22012AD  25283.77878249  .00000000  00000+0 -33341-4 0  9992
2 51649  87.9099  55.4398 0001826  96.2712 263.8628 13.17649007181044
ONEWEB-0463             
1 51650U 22012AE  25283.83615935  .00000062  00000+0  12597-3 0  9998
2 51650  87.9081  55.4835 0001624  96.5607 263.5710 13.17649322180830
ONEWEB-0464             
1 51651U 22012AF  25283.72567294 -.00000484  00000+0 -14230-2 0  9996
2 51651  87.8749  86.0240 0001508 102.1577 257.9719 13.10375390176657
ONEWEB-0468             
1 51652U 22012AG  25283.73231816  .00000070  00000+0  16300-3 0  9996
2 51652  87.8752  86.0149 0001561  97.1173 263.0132 13.10377568176638
ONEWEB-0473             
1 51653U 22012AH  25283.48829925 -.00000681  00000+0 -19864-2 0  9990
2 51653  87.8749  86.0674 0001444  90.2587 269.8706 13.10373826176602
ONEWEB-0474             
1 51654U 22012AJ  25283.70906801 -.00000620  00000+0 -18123-2 0  9995
2 51654  87.8756  85.9859 0001341  98.9717 261.1562 13.10370395176625
ONEWEB-0475             
1 51655U 22012AK  25283.39235266  .00000053  00000+0  10251-3 0  9994
2 51655  87.9086  55.5561 0000899 103.8399 256.2832 13.17649744180797
ONEWEB-0490             
1 54113U 22138A   25283.62151229  .00000096  00000+0  20651-3 0  9999
2 54113  87.9280 354.5954 0001832 106.1702 253.9632 13.19726582143918
ONEWEB-0492             
1 54114U 22138B   25283.49516257  .00000053  00000+0  99307-4 0  9999
2 54114  87.9275 354.6411 0001978 106.6103 253.5247 13.19725006143900
ONEWEB-0495             
1 54115U 22138C   25283.62467264  .00000058  00000+0  11379-3 0  9995
2 54115  87.9265 354.6219 0001680 122.3207 237.8088 13.19726065143900
ONEWEB-0497             
1 54116U 22138D   25283.63730829  .00000058  00000+0  11216-3 0  9997
2 54116  87.9279 354.5998 0001859 103.0610 257.0731 13.19726933143892
ONEWEB-0499             
1 54117U 22138E   25283.62070693 -.00000282  00000+0 -73590-3 0  9997
2 54117  87.9272 354.6186 0001710 100.9156 259.2169 13.19723919143905
ONEWEB-0500             
1 54118U 22138F   25283.62309752  .00000059  00000+0  11546-3 0  9992
2 54118  87.9270 354.6056 0001976 100.2105 259.9251 13.19726643143918
ONEWEB-0501             
1 54119U 22138G   25283.65312443 -.00000785  00000+0 -19939-2 0  9998
2 54119  87.9264 354.5924 0001779 105.8765 254.2564 13.19716699143891
ONEWEB-0502             
1 54120U 22138H   25283.63888353  .00000068  00000+0  13713-3 0  9993
2 54120  87.9278 354.5782 0001641 104.4757 255.6558 13.19723589143911
ONEWEB-0503             
1 54121U 22138J   25283.62781910  .00000073  00000+0  14978-3 0  9994
2 54121  87.9278 354.5846 0001680  92.7130 267.4195 13.19727433143909
ONEWEB-0504             
1 54122U 22138K   25283.61518530  .00000032  00000+0  48867-4 0  9990
2 54122  87.9282 354.6044 0001575 103.3959 256.7349 13.19723106143913
ONEWEB-0505             
1 54123U 22138L   25283.61204074  .00000079  00000+0  16445-3 0  9993
2 54123  87.9281 354.5932 0001491 115.3955 244.7332 13.19726745143892
ONEWEB-0506             
1 54124U 22138M   25283.58675762 -.00000028  00000+0 -10301-3 0  9997
2 54124  87.9279 354.5949 0001798 104.5180 255.6153 13.19723161143888
ONEWEB-0507             
1 54125U 22138N   25283.45565330 -.00000126  00000+0 -34640-3 0  9994
2 54125  87.9261 354.6673 0001781 106.5660 253.5669 13.19725032143914
ONEWEB-0508             
1 54126U 22138P   25283.60413545  .00000082  00000+0  17334-3 0  9992
2 54126  87.9275 354.6253 0001735 112.5683 247.5634 13.19724116143912
ONEWEB-0509             
1 54127U 22138Q   25283.65467416  .00000043  00000+0  75597-4 0  9997
2 54127  87.9276 354.5803 0001741 103.9034 256.2292 13.19728871143891
ONEWEB-0510             
1 54128U 22138R   25283.81589388  .00000017  00000+0  88823-5 0  9997
2 54128  87.9225 324.1691 0002265  85.2468 274.8924 13.20772928146366
ONEWEB-0511             
1 54129U 22138S   25283.65151987  .00000036  00000+0  56583-4 0  9998
2 54129  87.9280 354.5853 0001658  93.7869 266.3453 13.19724301143921
ONEWEB-0512             
1 54130U 22138T   25283.64361778  .00000069  00000+0  14074-3 0  9994
2 54130  87.9261 354.6217 0001576 108.3755 251.7549 13.19723666143896
ONEWEB-0513             
1 54131U 22138U   25283.22273618  .00000103  00000+0  22312-3 0  9997
2 54131  87.9284 354.6654 0001251 100.0213 260.1061 13.20316888143737
ONEWEB-0514             
1 54132U 22138V   25283.43197123  .00000108  00000+0  23706-3 0  9990
2 54132  87.9278 354.6422 0001918  96.4757 263.6594 13.19727719143887
ONEWEB-0515             
1 54133U 22138W   25283.57598749  .00000007  00000+0 -14177-4 0  9997
2 54133  87.9235 324.1981 0002831  95.7887 264.3569 13.20769784146359
ONEWEB-0516             
1 54134U 22138X   25283.63415031  .00000096  00000+0  20796-3 0  9997
2 54134  87.9262 354.6287 0001881 105.2576 254.8765 13.19727390143919
ONEWEB-0517             
1 54135U 22138Y   25283.46197510  .00000158  00000+0  36265-3 0  9995
2 54135  87.9282 354.6315 0001706  91.7915 268.3413 13.19727717143896
ONEWEB-0518             
1 54136U 22138Z   25283.63255551 -.00000084  00000+0 -24217-3 0  9999
2 54136  87.9263 354.6305 0001728 104.7882 255.3442 13.19726959143915
ONEWEB-0519             
1 54137U 22138AA  25283.65783227 -.00000008  00000+0 -52513-4 0  9995
2 54137  87.9280 354.5844 0001649  94.9387 265.1934 13.19728659143929
ONEWEB-0520             
1 54138U 22138AB  25283.61676346  .00000074  00000+0  15309-3 0  9997
2 54138  87.9280 354.5964 0001778 109.3411 250.7914 13.19723146143907
ONEWEB-0521             
1 54139U 22138AC  25283.64995117  .00000033  00000+0  50665-4 0  9991
2 54139  87.9277 354.5754 0001876  93.2976 266.8372 13.19726367143855
ONEWEB-0522             
1 54140U 22138AD  25283.62942255  .00000060  00000+0  11652-3 0  9998
2 54140  87.9277 354.5806 0001761 104.6631 255.4697 13.19725325143894
ONEWEB-0523             
1 54141U 22138AE  25283.56336478 -.00000036  00000+0 -12160-3 0  9996
2 54141  87.9222 324.2235 0002555  80.6791 279.4631 13.20773711146359
ONEWEB-0524             
1 54142U 22138AF  25283.85536138  .00000044  00000+0  75306-4 0  9993
2 54142  87.9222 324.1673 0002835 101.3090 258.8362 13.20770977146396
ONEWEB-0525             
1 54143U 22138AG  25283.64836536  .00000003  00000+0 -25869-4 0  9991
2 54143  87.9281 354.5990 0001763 109.3869 250.7454 13.19726231143912
ONEWEB-0526             
1 54144U 22138AH  25283.45407471 -.00000098  00000+0 -27780-3 0  9991
2 54144  87.9279 354.6239 0001836 103.1532 256.9806 13.19725014143868
ONEWEB-0529             
1 54145U 22138AJ  25283.60887609  .00000084  00000+0  17686-3 0  9991
2 54145  87.9264 354.6302 0001787 107.6939 252.4388 13.19727085143900
ONEWEB-0531             
1 54146U 22138AK  25283.38660718  .00000026  00000+0  32475-4 0  9997
2 54146  87.9223 324.2515 0002786  88.4390 271.7063 13.20770678146334
ONEWEB-0535             
1 54147U 22138AL  25283.64204309  .00000023  00000+0  26230-4 0  9996
2 54147  87.9276 354.5821 0002077  90.7133 269.4238 13.19723382143921
ONEWEB-0536             
1 54148U 22138AM  25283.82850948  .00000084  00000+0  17488-3 0  9994
2 54148  87.9222 324.2105 0002921  90.7637 269.3831 13.20773336146386
ONEWEB-0527             
1 54642U 22166A   25283.44883310  .00000070  00000+0  13736-3 0  9998
2 54642  87.9165 293.8334 0001903  93.2151 266.9201 13.21887325138542
ONEWEB-0528             
1 54643U 22166B   25283.75796108  .00000036  00000+0  56746-4 0  9992
2 54643  87.9171 293.7749 0001901  94.2631 265.8721 13.21860195138597
ONEWEB-0539             
1 54644U 22166C   25283.79456877 -.00001346  00000+0 -32966-2 0  9996
2 54644  87.9164 293.7342 0001748  88.0764 272.0570 13.21716767138593
ONEWEB-0540             
1 54645U 22166D   25283.72537376 -.00001196  00000+0 -29321-2 0  9998
2 54645  87.9167 293.7863 0001775  86.8963 273.2374 13.21707394138571
ONEWEB-0542             
1 54646U 22166E   25283.72840319 -.00000819  00000+0 -20187-2 0  9995
2 54646  87.9160 293.7453 0001733  81.1295 279.0035 13.21687938138580
ONEWEB-0545             
1 54647U 22166F   25283.77068747 -.00000880  00000+0 -21636-2 0  9996
2 54647  87.9167 293.7561 0001457  83.0124 277.1176 13.21817895138552
ONEWEB-0580             
1 54648U 22166G   25283.74399949  .00000120  00000+0  25984-3 0  9991
2 54648  87.9164 293.7596 0001735  80.1311 280.0019 13.21771469138592
ONEWEB-0582             
1 54649U 22166H   25283.78662111 -.00000514  00000+0 -12772-2 0  9999
2 54649  87.9159 293.7440 0001693  76.3213 283.8109 13.21754919138576
ONEWEB-0583             
1 54650U 22166J   25283.72204082 -.00001902  00000+0 -46451-2 0  9997
2 54650  87.9163 293.7833 0001901  87.0160 273.1192 13.21715345138575
ONEWEB-0584             
1 54651U 22166K   25283.74238596 -.00000727  00000+0 -17943-2 0  9995
2 54651  87.9167 293.7636 0001809  78.7210 281.4127 13.21780069138565
ONEWEB-0585             
1 54652U 22166L   25283.76752810 -.00000034  00000+0 -11346-3 0  9991
2 54652  87.9162 293.7439 0001984  93.7646 266.3715 13.21825131138572
ONEWEB-0586             
1 54653U 22166M   25283.78025772 -.00000054  00000+0 -16140-3 0  9993
2 54653  87.9166 293.7669 0001738  87.2189 272.9144 13.21778811138570
ONEWEB-0587             
1 54654U 22166N   25283.78978999 -.00000111  00000+0 -30087-3 0  9992
2 54654  87.9175 293.7145 0002190  98.7714 261.3668 13.21743839138737
